{"type":"FeatureCollection","features":[{"type":"Feature","properties":{"featurecla":"Admin-0 map unit","scalerank":4,"LABELRANK":6,"SOVEREIGNT":"New Zealand","SOV_A3":"NZ1","ADM0_DIF":1,"LEVEL":3,"TYPE":"Geo unit","TLC":"1","ADMIN":"New Zealand","ADM0_A3":"NZL","GEOU_DIF":1,"GEOUNIT":"Tokelau","GU_A3":"TKL","SU_DIF":0,"SUBUNIT":"Tokelau","SU_A3":"TKL","BRK_DIFF":0,"NAME":"Tokelau","NAME_LONG":"Tokelau","BRK_A3":"TKL","BRK_NAME":"Tokelau","BRK_GROUP":null,"ABBREV":"Tkl.","POSTAL":"TK","FORMAL_EN":null,"FORMAL_FR":null,"NAME_CIAWF":"Tokelau","NOTE_ADM0":"N.Z.","NOTE_BRK":null,"NAME_SORT":"Tokelau","NAME_ALT":null,"MAPCOLOR7":3,"MAPCOLOR8":3,"MAPCOLOR9":4,"MAPCOLOR13":4,"POP_EST":1499,"POP_RANK":3,"POP_YEAR":2016,"GDP_MD":2,"GDP_YEAR":1993,"ECONOMY":"7. Least developed region","INCOME_GRP":"5. Low income","FIPS_10":"TL","ISO_A2":"TK","ISO_A2_EH":"TK","ISO_A3":"TKL","ISO_A3_EH":"TKL","ISO_N3":"772","ISO_N3_EH":"772","UN_A3":"772","WB_A2":"-99","WB_A3":"-99","WOE_ID":23424963,"WOE_ID_EH":23424963,"WOE_NOTE":"NE mapunit match","ADM0_ISO":"TKL","ADM0_DIFF":null,"ADM0_TLC":"TKL","ADM0_A3_US":"NZL","ADM0_A3_FR":"NZL","ADM0_A3_RU":"NZL","ADM0_A3_ES":"NZL","ADM0_A3_CN":"NZL","ADM0_A3_TW":"NZL","ADM0_A3_IN":"NZL","ADM0_A3_NP":"NZL","ADM0_A3_PK":"NZL","ADM0_A3_DE":"NZL","ADM0_A3_GB":"NZL","ADM0_A3_BR":"NZL","ADM0_A3_IL":"NZL","ADM0_A3_PS":"NZL","ADM0_A3_SA":"NZL","ADM0_A3_EG":"NZL","ADM0_A3_MA":"NZL","ADM0_A3_PT":"NZL","ADM0_A3_AR":"NZL","ADM0_A3_JP":"NZL","ADM0_A3_KO":"NZL","ADM0_A3_VN":"NZL","ADM0_A3_TR":"NZL","ADM0_A3_ID":"NZL","ADM0_A3_PL":"NZL","ADM0_A3_GR":"NZL","ADM0_A3_IT":"NZL","ADM0_A3_NL":"NZL","ADM0_A3_SE":"NZL","ADM0_A3_BD":"NZL","ADM0_A3_UA":"NZL","ADM0_A3_UN":-99,"ADM0_A3_WB":-99,"CONTINENT":"Oceania","REGION_UN":"Oceania","SUBREGION":"Polynesia","REGION_WB":"East Asia & Pacific","NAME_LEN":7,"LONG_LEN":7,"ABBREV_LEN":4,"TINY":-99,"HOMEPART":-99,"MIN_ZOOM":0,"MIN_LABEL":5,"MAX_LABEL":10,"LABEL_X":-172.48629,"LABEL_Y":-8.561824,"NE_ID":1159321137,"WIKIDATAID":"Q36823","NAME_AR":"\u062a\u0648\u0643\u064a\u0644\u0627\u0648","NAME_BN":"\u099f\u09cb\u0995\u09c7\u09b2\u09be\u0989","NAME_DE":"Tokelau","NAME_EN":"Tokelau","NAME_ES":"Tokelau","NAME_FA":"\u062a\u0648\u06a9\u0644\u0627\u0626\u0648","NAME_FR":"Tokelau","NAME_EL":"\u03a4\u03bf\u03ba\u03b5\u03bb\u03ac\u03bf\u03c5","NAME_HE":"\u05d8\u05d5\u05e7\u05dc\u05d0\u05d5","NAME_HI":"\u091f\u094b\u0915\u0947\u0932\u093e\u090a","NAME_HU":"Tokelau-szigetek","NAME_ID":"Tokelau","NAME_IT":"Tokelau","NAME_JA":"\u30c8\u30b1\u30e9\u30a6","NAME_KO":"\ud1a0\ucf08\ub77c\uc6b0","NAME_NL":"Tokelau-eilanden","NAME_PL":"Tokelau","NAME_PT":"Tokelau","NAME_RU":"\u0422\u043e\u043a\u0435\u043b\u0430\u0443","NAME_SV":"Tokelau","NAME_TR":"Tokelau","NAME_UK":"\u0422\u043e\u043a\u0435\u043b\u0430\u0443","NAME_UR":"\u0679\u0648\u06a9\u06cc\u0644\u0627\u0624","NAME_VI":"Tokelau","NAME_ZH":"\u6258\u514b\u52b3","NAME_ZHT":"\u6258\u514b\u52de","FCLASS_ISO":"Admin-0 dependency","TLC_DIFF":null,"FCLASS_TLC":"Admin-0 dependency","FCLASS_US":null,"FCLASS_FR":null,"FCLASS_RU":null,"FCLASS_ES":null,"FCLASS_CN":null,"FCLASS_TW":null,"FCLASS_IN":null,"FCLASS_NP":null,"FCLASS_PK":null,"FCLASS_DE":null,"FCLASS_GB":null,"FCLASS_BR":null,"FCLASS_IL":null,"FCLASS_PS":null,"FCLASS_SA":null,"FCLASS_EG":null,"FCLASS_MA":null,"FCLASS_PT":null,"FCLASS_AR":null,"FCLASS_JP":null,"FCLASS_KO":null,"FCLASS_VN":null,"FCLASS_TR":null,"FCLASS_ID":null,"FCLASS_PL":null,"FCLASS_GR":null,"FCLASS_IT":null,"FCLASS_NL":null,"FCLASS_SE":null,"FCLASS_BD":null,"FCLASS_UA":null},"bbox":[-172.498682,-9.358301,-171.186426,-8.546484],"geometry":{"type":"MultiPolygon","coordinates":[[[[-172.47915,-8.580762],[-172.483691,-8.58291],[-172.488232,-8.571582],[-172.494043,-8.55918],[-172.498682,-8.547949],[-172.497021,-8.546484],[-172.487256,-8.556152],[-172.481104,-8.56748],[-172.47915,-8.580762]]],[[[-171.186426,-9.355469],[-171.188623,-9.358301],[-171.193018,-9.352441],[-171.200049,-9.344727],[-171.204443,-9.333301],[-171.20166,-9.332617],[-171.194434,-9.33877],[-171.189307,-9.346582],[-171.186426,-9.355469]]]]}},{"type":"Feature","properties":{"featurecla":"Admin-0 map unit","scalerank":3,"LABELRANK":6,"SOVEREIGNT":"Netherlands","SOV_A3":"NL1","ADM0_DIF":1,"LEVEL":3,"TYPE":"Geo unit","TLC":"1","ADMIN":"Netherlands","ADM0_A3":"NLD","GEOU_DIF":1,"GEOUNIT":"Caribbean Netherlands","GU_A3":"NLY","SU_DIF":0,"SUBUNIT":"Caribbean Netherlands","SU_A3":"NLY","BRK_DIFF":0,"NAME":"Caribbean Netherlands","NAME_LONG":"Caribbean Netherlands","BRK_A3":"NLY","BRK_NAME":"Caribbean Netherlands","BRK_GROUP":null,"ABBREV":"BES Is.","POSTAL":"NC","FORMAL_EN":"Bonaire, Sint Eustatius, and Saba","FORMAL_FR":null,"NAME_CIAWF":null,"NOTE_ADM0":"Neth.","NOTE_BRK":null,"NAME_SORT":"Caribbean Netherlands","NAME_ALT":null,"MAPCOLOR7":4,"MAPCOLOR8":2,"MAPCOLOR9":2,"MAPCOLOR13":9,"POP_EST":25987,"POP_RANK":7,"POP_YEAR":2020,"GDP_MD":1359,"GDP_YEAR":2013,"ECONOMY":"2. Developed region: nonG7","INCOME_GRP":"1. High income: OECD","FIPS_10":"-99","ISO_A2":"BQ","ISO_A2_EH":"BQ","ISO_A3":"BES","ISO_A3_EH":"BES","ISO_N3":"535","ISO_N3_EH":"535","UN_A3":"-099","WB_A2":"-99","WB_A3":"-99","WOE_ID":-99,"WOE_ID_EH":23424914,"WOE_NOTE":"Eh is NE mapunit match; WOE out of date, should ignore: Curacao (24549810).","ADM0_ISO":"NLY","ADM0_DIFF":null,"ADM0_TLC":"NLY","ADM0_A3_US":"NLD","ADM0_A3_FR":"NLD","ADM0_A3_RU":"NLD","ADM0_A3_ES":"NLD","ADM0_A3_CN":"NLD","ADM0_A3_TW":"NLD","ADM0_A3_IN":"NLD","ADM0_A3_NP":"NLD","ADM0_A3_PK":"NLD","ADM0_A3_DE":"NLD","ADM0_A3_GB":"NLD","ADM0_A3_BR":"NLD","ADM0_A3_IL":"NLD","ADM0_A3_PS":"NLD","ADM0_A3_SA":"NLD","ADM0_A3_EG":"NLD","ADM0_A3_MA":"NLD","ADM0_A3_PT":"NLD","ADM0_A3_AR":"NLD","ADM0_A3_JP":"NLD","ADM0_A3_KO":"NLD","ADM0_A3_VN":"NLD","ADM0_A3_TR":"NLD","ADM0_A3_ID":"NLD","ADM0_A3_PL":"NLD","ADM0_A3_GR":"NLD","ADM0_A3_IT":"NLD","ADM0_A3_NL":"NLD","ADM0_A3_SE":"NLD","ADM0_A3_BD":"NLD","ADM0_A3_UA":"NLD","ADM0_A3_UN":-99,"ADM0_A3_WB":-99,"CONTINENT":"North America","REGION_UN":"Americas","SUBREGION":"Caribbean","REGION_WB":"Latin America & Caribbean","NAME_LEN":21,"LONG_LEN":21,"ABBREV_LEN":7,"TINY":-99,"HOMEPART":-99,"MIN_ZOOM":0,"MIN_LABEL":7.7,"MAX_LABEL":11,"LABEL_X":-63.1334,"LABEL_Y":17.5438,"NE_ID":1159321107,"WIKIDATAID":"Q27561","NAME_AR":"\u0627\u0644\u062c\u0632\u0631 \u0627\u0644\u0643\u0627\u0631\u064a\u0628\u064a\u0629 \u0627\u0644\u0647\u0648\u0644\u0646\u062f\u064a\u0629","NAME_BN":"\u0995\u09cd\u09af\u09be\u09b0\u09bf\u09ac\u09bf\u09df\u09be\u09a8 \u09a8\u09c7\u09a6\u09be\u09b0\u09b2\u09cd\u09af\u09be\u09a8\u09cd\u09a1\u09b8","NAME_DE":"Karibische Niederlande","NAME_EN":"Caribbean Netherlands","NAME_ES":"Caribe neerland\u00e9s","NAME_FA":"\u062c\u0632\u0627\u06cc\u0631 \u06a9\u0627\u0631\u0627\u0626\u06cc\u0628 \u0647\u0644\u0646\u062f","NAME_FR":"Pays-Bas carib\u00e9ens","NAME_EL":"\u039a\u03b1\u03c1\u03b1\u03ca\u03b2\u03b9\u03ba\u03ad\u03c2 \u039a\u03ac\u03c4\u03c9 \u03a7\u03ce\u03c1\u03b5\u03c2","NAME_HE":"\u05d4\u05d5\u05dc\u05e0\u05d3 \u05d4\u05e7\u05e8\u05d9\u05d1\u05d9\u05ea","NAME_HI":"\u0915\u0948\u0930\u0940\u092c\u093f\u092f\u0928 \u0928\u0940\u0926\u0930\u0932\u0948\u0902\u0921\u094d\u0938","NAME_HU":"Karibi Hollandia","NAME_ID":"Kepulauan BES","NAME_IT":"Paesi Bassi caraibici","NAME_JA":"\u30dc\u30cd\u30fc\u30eb\u3001\u30b7\u30f3\u30c8\u30fb\u30e6\u30fc\u30b9\u30bf\u30c6\u30a3\u30a6\u30b9\u304a\u3088\u3073\u30b5\u30d0","NAME_KO":"\uce74\ub9ac\ube0c \ub124\ub35c\ub780\ub4dc","NAME_NL":"Caribisch Nederland","NAME_PL":"Niderlandy Karaibskie","NAME_PT":"Pa\u00edses Baixos Caribenhos","NAME_RU":"\u0411\u043e\u043d\u044d\u0439\u0440","NAME_SV":"Karibiska Nederl\u00e4nderna","NAME_TR":"Karayip Hollandas\u0131","NAME_UK":"\u041d\u0456\u0434\u0435\u0440\u043b\u0430\u043d\u0434\u0441\u044c\u043a\u0456 \u041a\u0430\u0440\u0438\u0431\u0441\u044c\u043a\u0456 \u043e\u0441\u0442\u0440\u043e\u0432\u0438","NAME_UR":"\u06a9\u06cc\u0631\u06cc\u0628\u06cc\u0646 \u0646\u06cc\u062f\u0631\u0644\u06cc\u0646\u0688\u0632","NAME_VI":"Caribe H\u00e0 Lan","NAME_ZH":"\u8377\u5170\u52a0\u52d2\u6bd4\u533a","NAME_ZHT":"\u8377\u862d\u52a0\u52d2\u6bd4\u5340","FCLASS_ISO":"Admin-0 dependency","TLC_DIFF":null,"FCLASS_TLC":"Admin-0 dependency","FCLASS_US":null,"FCLASS_FR":null,"FCLASS_RU":null,"FCLASS_ES":null,"FCLASS_CN":null,"FCLASS_TW":null,"FCLASS_IN":null,"FCLASS_NP":null,"FCLASS_PK":null,"FCLASS_DE":null,"FCLASS_GB":null,"FCLASS_BR":null,"FCLASS_IL":null,"FCLASS_PS":null,"FCLASS_SA":null,"FCLASS_EG":null,"FCLASS_MA":null,"FCLASS_PT":null,"FCLASS_AR":null,"FCLASS_JP":null,"FCLASS_KO":null,"FCLASS_VN":null,"FCLASS_TR":null,"FCLASS_ID":null,"FCLASS_PL":null,"FCLASS_GR":null,"FCLASS_IT":null,"FCLASS_NL":null,"FCLASS_SE":null,"FCLASS_BD":null,"FCLASS_UA":null},"bbox":[-68.371094,12.03208,-62.9375,17.651807],"geometry":{"type":"MultiPolygon","coordinates":[[[[-68.205811,12.14458],[-68.254346,12.03208],[-68.282227,12.082275],[-68.287256,12.171729],[-68.307129,12.206738],[-68.348437,12.228076],[-68.371094,12.25752],[-68.369238,12.301953],[-68.219482,12.23125],[-68.205811,12.14458]]],[[[-62.9375,17.495654],[-62.961719,17.475049],[-62.983105,17.476904],[-62.997168,17.496826],[-62.999609,17.530371],[-62.979346,17.521191],[-62.971777,17.516064],[-62.96543,17.509277],[-62.9375,17.495654]]],[[[-63.232666,17.623145],[-63.241602,17.61958],[-63.254492,17.628662],[-63.252148,17.645264],[-63.24165,17.651807],[-63.233496,17.647217],[-63.226904,17.634131],[-63.232666,17.623145]]]]}},{"type":"Feature","properties":{"featurecla":"Admin-0 map unit","scalerank":3,"LABELRANK":4,"SOVEREIGNT":"France","SOV_A3":"FR1","ADM0_DIF":1,"LEVEL":3,"TYPE":"Disputed","TLC":"1","ADMIN":"France","ADM0_A3":"FRA","GEOU_DIF":1,"GEOUNIT":"Mayotte","GU_A3":"MYT","SU_DIF":0,"SUBUNIT":"Mayotte","SU_A3":"MYT","BRK_DIFF":1,"NAME":"Mayotte","NAME_LONG":"Mayotte","BRK_A3":"B22","BRK_NAME":"Mayotte","BRK_GROUP":null,"ABBREV":"Myt.","POSTAL":"YT","FORMAL_EN":"Department of Mayotte","FORMAL_FR":null,"NAME_CIAWF":null,"NOTE_ADM0":"Fr.","NOTE_BRK":"Admin. by France; Claimed by Comoros","NAME_SORT":"Mayotte","NAME_ALT":null,"MAPCOLOR7":7,"MAPCOLOR8":5,"MAPCOLOR9":9,"MAPCOLOR13":11,"POP_EST":279471,"POP_RANK":10,"POP_YEAR":2020,"GDP_MD":1152,"GDP_YEAR":2016,"ECONOMY":"1. Developed region: G7","INCOME_GRP":"4. Lower middle income","FIPS_10":"MF","ISO_A2":"FR-976","ISO_A2_EH":"YT","ISO_A3":"MYT","ISO_A3_EH":"MYT","ISO_N3":"175","ISO_N3_EH":"175","UN_A3":"175","WB_A2":"-99","WB_A3":"-99","WOE_ID":23424886,"WOE_ID_EH":23424886,"WOE_NOTE":"Exact WOE match as country","ADM0_ISO":"B22","ADM0_DIFF":null,"ADM0_TLC":"B22","ADM0_A3_US":"FRA","ADM0_A3_FR":"FRA","ADM0_A3_RU":"FRA","ADM0_A3_ES":"FRA","ADM0_A3_CN":"FRA","ADM0_A3_TW":"FRA","ADM0_A3_IN":"FRA","ADM0_A3_NP":"FRA","ADM0_A3_PK":"FRA","ADM0_A3_DE":"FRA","ADM0_A3_GB":"FRA","ADM0_A3_BR":"FRA","ADM0_A3_IL":"FRA","ADM0_A3_PS":"FRA","ADM0_A3_SA":"FRA","ADM0_A3_EG":"FRA","ADM0_A3_MA":"FRA","ADM0_A3_PT":"FRA","ADM0_A3_AR":"FRA","ADM0_A3_JP":"FRA","ADM0_A3_KO":"FRA","ADM0_A3_VN":"FRA","ADM0_A3_TR":"FRA","ADM0_A3_ID":"FRA","ADM0_A3_PL":"FRA","ADM0_A3_GR":"FRA","ADM0_A3_IT":"FRA","ADM0_A3_NL":"FRA","ADM0_A3_SE":"FRA","ADM0_A3_BD":"FRA","ADM0_A3_UA":"FRA","ADM0_A3_UN":-99,"ADM0_A3_WB":-99,"CONTINENT":"Africa","REGION_UN":"Africa","SUBREGION":"Eastern Africa","REGION_WB":"Sub-Saharan Africa","NAME_LEN":7,"LONG_LEN":7,"ABBREV_LEN":4,"TINY":-99,"HOMEPART":-99,"MIN_ZOOM":0,"MIN_LABEL":5,"MAX_LABEL":10,"LABEL_X":45.151319,"LABEL_Y":-12.774755,"NE_ID":1159320659,"WIKIDATAID":"Q17063","NAME_AR":"\u0645\u0627\u064a\u0648\u062a","NAME_BN":"\u09ae\u09be\u09af\u09bc\u09cb\u09a4","NAME_DE":"Mayotte","NAME_EN":"Mayotte","NAME_ES":"Mayotte","NAME_FA":"\u0645\u0627\u06cc\u0648\u062a","NAME_FR":"Mayotte","NAME_EL":"\u039c\u03b1\u03b3\u03b9\u03cc\u03c4","NAME_HE":"\u05de\u05d9\u05d5\u05d8","NAME_HI":"\u092e\u0947\u092f\u094b\u091f","NAME_HU":"Mayotte","NAME_ID":"Mayotte","NAME_IT":"Mayotte","NAME_JA":"\u30de\u30e8\u30c3\u30c8","NAME_KO":"\ub9c8\uc694\ud2b8","NAME_NL":"Mayotte","NAME_PL":"Majotta","NAME_PT":"Mayotte","NAME_RU":"\u041c\u0430\u0439\u043e\u0442\u0442\u0430","NAME_SV":"Mayotte","NAME_TR":"Mayotte","NAME_UK":"\u041c\u0430\u0439\u043e\u0442\u0442\u0430","NAME_UR":"\u0645\u0627\u06cc\u0648\u0679","NAME_VI":"Mayotte","NAME_ZH":"\u9a6c\u7ea6\u7279","NAME_ZHT":"\u9a6c\u7ea6\u7279","FCLASS_ISO":"Admin-0 dependency","TLC_DIFF":"1","FCLASS_TLC":"Admin-1 states provinces","FCLASS_US":null,"FCLASS_FR":null,"FCLASS_RU":null,"FCLASS_ES":null,"FCLASS_CN":null,"FCLASS_TW":null,"FCLASS_IN":null,"FCLASS_NP":null,"FCLASS_PK":null,"FCLASS_DE":null,"FCLASS_GB":null,"FCLASS_BR":null,"FCLASS_IL":null,"FCLASS_PS":null,"FCLASS_SA":null,"FCLASS_EG":null,"FCLASS_MA":null,"FCLASS_PT":null,"FCLASS_AR":null,"FCLASS_JP":null,"FCLASS_KO":null,"FCLASS_VN":null,"FCLASS_TR":null,"FCLASS_ID":null,"FCLASS_PL":null,"FCLASS_GR":null,"FCLASS_IT":null,"FCLASS_NL":null,"FCLASS_SE":null,"FCLASS_BD":null,"FCLASS_UA":null},"bbox":[45.042578,-12.984961,45.223145,-12.653027],"geometry":{"type":"Polygon","coordinates":[[[45.180273,-12.976758],[45.117578,-12.984961],[45.087695,-12.958496],[45.069434,-12.895605],[45.088281,-12.835059],[45.093555,-12.786133],[45.042578,-12.70127],[45.092383,-12.653027],[45.134766,-12.70918],[45.158789,-12.712988],[45.223145,-12.752148],[45.204297,-12.824316],[45.208594,-12.847949],[45.179395,-12.920215],[45.180273,-12.976758]]]}},{"type":"Feature","properties":{"featurecla":"Admin-0 map unit","scalerank":3,"LABELRANK":4,"SOVEREIGNT":"France","SOV_A3":"FR1","ADM0_DIF":1,"LEVEL":3,"TYPE":"Geo unit","TLC":"1","ADMIN":"France","ADM0_A3":"FRA","GEOU_DIF":1,"GEOUNIT":"Reunion","GU_A3":"REU","SU_DIF":0,"SUBUNIT":"R\u00e9union","SU_A3":"REU","BRK_DIFF":0,"NAME":"R\u00e9union","NAME_LONG":"R\u00e9union","BRK_A3":"REU","BRK_NAME":"R\u00e9union","BRK_GROUP":null,"ABBREV":"Reu.","POSTAL":"RE","FORMAL_EN":"Department of Reunion","FORMAL_FR":null,"NAME_CIAWF":null,"NOTE_ADM0":"Fr.","NOTE_BRK":null,"NAME_SORT":"Reunion","NAME_ALT":null,"MAPCOLOR7":7,"MAPCOLOR8":5,"MAPCOLOR9":9,"MAPCOLOR13":11,"POP_EST":859959,"POP_RANK":11,"POP_YEAR":2020,"GDP_MD":5254,"GDP_YEAR":2016,"ECONOMY":"1. Developed region: G7","INCOME_GRP":"4. Lower middle income","FIPS_10":"RE","ISO_A2":"FR-974","ISO_A2_EH":"RE","ISO_A3":"REU","ISO_A3_EH":"REU","ISO_N3":"638","ISO_N3_EH":"638","UN_A3":"638","WB_A2":"-99","WB_A3":"-99","WOE_ID":23424931,"WOE_ID_EH":23424931,"WOE_NOTE":"Exact WOE match as country","ADM0_ISO":"REU","ADM0_DIFF":null,"ADM0_TLC":"REU","ADM0_A3_US":"FRA","ADM0_A3_FR":"FRA","ADM0_A3_RU":"FRA","ADM0_A3_ES":"FRA","ADM0_A3_CN":"FRA","ADM0_A3_TW":"FRA","ADM0_A3_IN":"FRA","ADM0_A3_NP":"FRA","ADM0_A3_PK":"FRA","ADM0_A3_DE":"FRA","ADM0_A3_GB":"FRA","ADM0_A3_BR":"FRA","ADM0_A3_IL":"FRA","ADM0_A3_PS":"FRA","ADM0_A3_SA":"FRA","ADM0_A3_EG":"FRA","ADM0_A3_MA":"FRA","ADM0_A3_PT":"FRA","ADM0_A3_AR":"FRA","ADM0_A3_JP":"FRA","ADM0_A3_KO":"FRA","ADM0_A3_VN":"FRA","ADM0_A3_TR":"FRA","ADM0_A3_ID":"FRA","ADM0_A3_PL":"FRA","ADM0_A3_GR":"FRA","ADM0_A3_IT":"FRA","ADM0_A3_NL":"FRA","ADM0_A3_SE":"FRA","ADM0_A3_BD":"FRA","ADM0_A3_UA":"FRA","ADM0_A3_UN":-99,"ADM0_A3_WB":-99,"CONTINENT":"Seven seas (open ocean)","REGION_UN":"Africa","SUBREGION":"Eastern Africa","REGION_WB":"Sub-Saharan Africa","NAME_LEN":7,"LONG_LEN":7,"ABBREV_LEN":4,"TINY":-99,"HOMEPART":-99,"MIN_ZOOM":0,"MIN_LABEL":5,"MAX_LABEL":10,"LABEL_X":55.535699,"LABEL_Y":-21.113488,"NE_ID":1159320661,"WIKIDATAID":"Q17070","NAME_AR":"\u0644\u0627 \u0631\u064a\u0648\u0646\u064a\u0648\u0646","NAME_BN":"\u09b0\u09c7\u0989\u09a8\u09bf\u0993\u0981","NAME_DE":"R\u00e9union","NAME_EN":"R\u00e9union","NAME_ES":"Reuni\u00f3n","NAME_FA":"\u0631\u0626\u0648\u0646\u06cc\u0648\u0646","NAME_FR":"La R\u00e9union","NAME_EL":"\u03a1\u03b5\u03cb\u03bd\u03b9\u03cc\u03bd","NAME_HE":"\u05e8\u05d0\u05d5\u05e0\u05d9\u05d5\u05df","NAME_HI":"\u0930\u0947\u092f\u0942\u0928\u093f\u092f\u094b\u0902","NAME_HU":"R\u00e9union","NAME_ID":"R\u00e9union","NAME_IT":"Riunione","NAME_JA":"\u30ec\u30e6\u30cb\u30aa\u30f3","NAME_KO":"\ub808\uc704\ub2c8\uc639","NAME_NL":"R\u00e9union","NAME_PL":"Reunion","NAME_PT":"Reuni\u00e3o","NAME_RU":"\u0420\u0435\u044e\u043d\u044c\u043e\u043d","NAME_SV":"R\u00e9union","NAME_TR":"R\u00e9union","NAME_UK":"\u0420\u0435\u044e\u043d\u044c\u0439\u043e\u043d","NAME_UR":"\u063a\u06d2 \u06cc\u0648\u0646\u06cc\u0648\u06ba","NAME_VI":"R\u00e9union","NAME_ZH":"\u7559\u5c3c\u6c6a","NAME_ZHT":"\u7559\u5c3c\u65fa","FCLASS_ISO":"Admin-0 dependency","TLC_DIFF":"1","FCLASS_TLC":"Admin-1 states provinces","FCLASS_US":null,"FCLASS_FR":null,"FCLASS_RU":null,"FCLASS_ES":null,"FCLASS_CN":null,"FCLASS_TW":null,"FCLASS_IN":null,"FCLASS_NP":null,"FCLASS_PK":null,"FCLASS_DE":null,"FCLASS_GB":null,"FCLASS_BR":null,"FCLASS_IL":null,"FCLASS_PS":null,"FCLASS_SA":null,"FCLASS_EG":null,"FCLASS_MA":null,"FCLASS_PT":null,"FCLASS_AR":null,"FCLASS_JP":null,"FCLASS_KO":null,"FCLASS_VN":null,"FCLASS_TR":null,"FCLASS_ID":null,"FCLASS_PL":null,"FCLASS_GR":null,"FCLASS_IT":null,"FCLASS_NL":null,"FCLASS_SE":null,"FCLASS_BD":null,"FCLASS_UA":null},"bbox":[55.232813,-21.369043,55.839063,-20.865137],"geometry":{"type":"Polygon","coordinates":[[[55.797363,-21.339355],[55.656152,-21.369043],[55.557617,-21.358301],[55.362695,-21.273633],[55.310352,-21.217383],[55.232813,-21.058398],[55.25,-21.002441],[55.311328,-20.904102],[55.450488,-20.865137],[55.596484,-20.87959],[55.661914,-20.90625],[55.73916,-21.021484],[55.839063,-21.138574],[55.822461,-21.277832],[55.797363,-21.339355]]]}},{"type":"Feature","properties":{"featurecla":"Admin-0 map unit","scalerank":1,"LABELRANK":5,"SOVEREIGNT":"France","SOV_A3":"FR1","ADM0_DIF":1,"LEVEL":3,"TYPE":"Geo unit","TLC":"1","ADMIN":"France","ADM0_A3":"FRA","GEOU_DIF":1,"GEOUNIT":"Martinique","GU_A3":"MTQ","SU_DIF":0,"SUBUNIT":"Martinique","SU_A3":"MTQ","BRK_DIFF":0,"NAME":"Martinique","NAME_LONG":"Martinique","BRK_A3":"MTQ","BRK_NAME":"Martinique","BRK_GROUP":null,"ABBREV":"Mtq.","POSTAL":"MQ","FORMAL_EN":"Department of Martinique","FORMAL_FR":null,"NAME_CIAWF":null,"NOTE_ADM0":"Fr.","NOTE_BRK":null,"NAME_SORT":"Martinique","NAME_ALT":null,"MAPCOLOR7":7,"MAPCOLOR8":5,"MAPCOLOR9":9,"MAPCOLOR13":11,"POP_EST":376480,"POP_RANK":10,"POP_YEAR":2016,"GDP_MD":7391,"GDP_YEAR":2016,"ECONOMY":"1. Developed region: G7","INCOME_GRP":"1. High income: OECD","FIPS_10":"MB","ISO_A2":"FR-972","ISO_A2_EH":"MQ","ISO_A3":"MTQ","ISO_A3_EH":"MTQ","ISO_N3":"474","ISO_N3_EH":"474","UN_A3":"474","WB_A2":"-99","WB_A3":"-99","WOE_ID":23424884,"WOE_ID_EH":23424884,"WOE_NOTE":"Exact WOE match as country","ADM0_ISO":"MTQ","ADM0_DIFF":null,"ADM0_TLC":"MTQ","ADM0_A3_US":"FRA","ADM0_A3_FR":"FRA","ADM0_A3_RU":"FRA","ADM0_A3_ES":"FRA","ADM0_A3_CN":"FRA","ADM0_A3_TW":"FRA","ADM0_A3_IN":"FRA","ADM0_A3_NP":"FRA","ADM0_A3_PK":"FRA","ADM0_A3_DE":"FRA","ADM0_A3_GB":"FRA","ADM0_A3_BR":"FRA","ADM0_A3_IL":"FRA","ADM0_A3_PS":"FRA","ADM0_A3_SA":"FRA","ADM0_A3_EG":"FRA","ADM0_A3_MA":"FRA","ADM0_A3_PT":"FRA","ADM0_A3_AR":"FRA","ADM0_A3_JP":"FRA","ADM0_A3_KO":"FRA","ADM0_A3_VN":"FRA","ADM0_A3_TR":"FRA","ADM0_A3_ID":"FRA","ADM0_A3_PL":"FRA","ADM0_A3_GR":"FRA","ADM0_A3_IT":"FRA","ADM0_A3_NL":"FRA","ADM0_A3_SE":"FRA","ADM0_A3_BD":"FRA","ADM0_A3_UA":"FRA","ADM0_A3_UN":-99,"ADM0_A3_WB":-99,"CONTINENT":"North America","REGION_UN":"Americas","SUBREGION":"Caribbean","REGION_WB":"Latin America & Caribbean","NAME_LEN":10,"LONG_LEN":10,"ABBREV_LEN":4,"TINY":-99,"HOMEPART":-99,"MIN_ZOOM":0,"MIN_LABEL":5,"MAX_LABEL":10,"LABEL_X":-61.055657,"LABEL_Y":14.711979,"NE_ID":1159320657,"WIKIDATAID":"Q17054","NAME_AR":"\u0645\u0627\u0631\u062a\u064a\u0646\u064a\u0643","NAME_BN":"\u09ae\u09be\u09b0\u09cd\u09a4\u09bf\u09a8\u09bf\u0995","NAME_DE":"Martinique","NAME_EN":"Martinique","NAME_ES":"Martinica","NAME_FA":"\u0645\u0627\u0631\u062a\u06cc\u0646\u06cc\u06a9","NAME_FR":"Martinique","NAME_EL":"\u039c\u03b1\u03c1\u03c4\u03b9\u03bd\u03af\u03ba\u03b1","NAME_HE":"\u05de\u05e8\u05d8\u05d9\u05e0\u05d9\u05e7","NAME_HI":"\u092e\u093e\u0930\u094d\u091f\u0940\u0928\u093f\u0915","NAME_HU":"Martinique","NAME_ID":"Martinik","NAME_IT":"Martinica","NAME_JA":"\u30de\u30eb\u30c6\u30a3\u30cb\u30fc\u30af","NAME_KO":"\ub9c8\ub974\ud2f0\ub2c8\ud06c","NAME_NL":"Martinique","NAME_PL":"Martynika","NAME_PT":"Martinica","NAME_RU":"\u041c\u0430\u0440\u0442\u0438\u043d\u0438\u043a\u0430","NAME_SV":"Martinique","NAME_TR":"Martinik","NAME_UK":"\u041c\u0430\u0440\u0442\u0438\u043d\u0456\u043a\u0430","NAME_UR":"\u0645\u0627\u0631\u0679\u06cc\u0646\u06cc\u06a9","NAME_VI":"Martinique","NAME_ZH":"\u9a6c\u63d0\u5c3c\u514b","NAME_ZHT":"\u99ac\u4e01\u5c3c\u514b","FCLASS_ISO":"Admin-0 dependency","TLC_DIFF":"1","FCLASS_TLC":"Admin-1 states provinces","FCLASS_US":null,"FCLASS_FR":null,"FCLASS_RU":null,"FCLASS_ES":null,"FCLASS_CN":null,"FCLASS_TW":null,"FCLASS_IN":null,"FCLASS_NP":null,"FCLASS_PK":null,"FCLASS_DE":null,"FCLASS_GB":null,"FCLASS_BR":null,"FCLASS_IL":null,"FCLASS_PS":null,"FCLASS_SA":null,"FCLASS_EG":null,"FCLASS_MA":null,"FCLASS_PT":null,"FCLASS_AR":null,"FCLASS_JP":null,"FCLASS_KO":null,"FCLASS_VN":null,"FCLASS_TR":null,"FCLASS_ID":null,"FCLASS_PL":null,"FCLASS_GR":null,"FCLASS_IT":null,"FCLASS_NL":null,"FCLASS_SE":null,"FCLASS_BD":null,"FCLASS_UA":null},"bbox":[-61.219727,14.42627,-60.82627,14.875293],"geometry":{"type":"Polygon","coordinates":[[[-60.82627,14.494482],[-60.836621,14.437402],[-60.862109,14.42627],[-60.899414,14.473779],[-61.063721,14.46709],[-61.088867,14.50957],[-61.090332,14.529687],[-61.011328,14.601904],[-61.104297,14.62124],[-61.141113,14.652393],[-61.219727,14.804395],[-61.21333,14.848584],[-61.180811,14.871924],[-61.127393,14.875293],[-61.0271,14.826172],[-60.952539,14.75625],[-60.927148,14.755176],[-60.918652,14.735352],[-60.933691,14.686182],[-60.88916,14.644531],[-60.869971,14.613721],[-60.82627,14.494482]]]}},{"type":"Feature","properties":{"featurecla":"Admin-0 map unit","scalerank":1,"LABELRANK":5,"SOVEREIGNT":"France","SOV_A3":"FR1","ADM0_DIF":1,"LEVEL":3,"TYPE":"Geo unit","TLC":"1","ADMIN":"France","ADM0_A3":"FRA","GEOU_DIF":1,"GEOUNIT":"Guadeloupe","GU_A3":"GLP","SU_DIF":0,"SUBUNIT":"Guadeloupe","SU_A3":"GLP","BRK_DIFF":0,"NAME":"Guadeloupe","NAME_LONG":"Guadeloupe","BRK_A3":"GLP","BRK_NAME":"Guadeloupe","BRK_GROUP":null,"ABBREV":"Guad.","POSTAL":"GP","FORMAL_EN":"Department of Guadeloupe","FORMAL_FR":null,"NAME_CIAWF":null,"NOTE_ADM0":"Fr.","NOTE_BRK":null,"NAME_SORT":"Guadeloupe","NAME_ALT":null,"MAPCOLOR7":7,"MAPCOLOR8":5,"MAPCOLOR9":9,"MAPCOLOR13":11,"POP_EST":395700,"POP_RANK":10,"POP_YEAR":2016,"GDP_MD":4245,"GDP_YEAR":2016,"ECONOMY":"1. Developed region: G7","INCOME_GRP":"3. Upper middle income","FIPS_10":"GP","ISO_A2":"FR-971","ISO_A2_EH":"GP","ISO_A3":"GLP","ISO_A3_EH":"GLP","ISO_N3":"312","ISO_N3_EH":"312","UN_A3":"312","WB_A2":"-99","WB_A3":"-99","WOE_ID":23424831,"WOE_ID_EH":23424831,"WOE_NOTE":"Exact WOE match as country","ADM0_ISO":"GLP","ADM0_DIFF":null,"ADM0_TLC":"GLP","ADM0_A3_US":"FRA","ADM0_A3_FR":"FRA","ADM0_A3_RU":"FRA","ADM0_A3_ES":"FRA","ADM0_A3_CN":"FRA","ADM0_A3_TW":"FRA","ADM0_A3_IN":"FRA","ADM0_A3_NP":"FRA","ADM0_A3_PK":"FRA","ADM0_A3_DE":"FRA","ADM0_A3_GB":"FRA","ADM0_A3_BR":"FRA","ADM0_A3_IL":"FRA","ADM0_A3_PS":"FRA","ADM0_A3_SA":"FRA","ADM0_A3_EG":"FRA","ADM0_A3_MA":"FRA","ADM0_A3_PT":"FRA","ADM0_A3_AR":"FRA","ADM0_A3_JP":"FRA","ADM0_A3_KO":"FRA","ADM0_A3_VN":"FRA","ADM0_A3_TR":"FRA","ADM0_A3_ID":"FRA","ADM0_A3_PL":"FRA","ADM0_A3_GR":"FRA","ADM0_A3_IT":"FRA","ADM0_A3_NL":"FRA","ADM0_A3_SE":"FRA","ADM0_A3_BD":"FRA","ADM0_A3_UA":"FRA","ADM0_A3_UN":-99,"ADM0_A3_WB":-99,"CONTINENT":"North America","REGION_UN":"Americas","SUBREGION":"Caribbean","REGION_WB":"Latin America & Caribbean","NAME_LEN":10,"LONG_LEN":10,"ABBREV_LEN":5,"TINY":-99,"HOMEPART":-99,"MIN_ZOOM":0,"MIN_LABEL":5,"MAX_LABEL":10,"LABEL_X":-61.433565,"LABEL_Y":16.299332,"NE_ID":1159320653,"WIKIDATAID":"Q17012","NAME_AR":"\u063a\u0648\u0627\u062f\u0644\u0648\u0628","NAME_BN":"\u0997\u09c1\u09af\u09bc\u09be\u09a6\u09b2\u09c1\u09aa","NAME_DE":"Guadeloupe","NAME_EN":"Guadeloupe","NAME_ES":"Guadalupe","NAME_FA":"\u062c\u0632\u06cc\u0631\u0647 \u06af\u0648\u0627\u062f\u0644\u0648\u067e","NAME_FR":"Guadeloupe","NAME_EL":"\u0393\u03bf\u03c5\u03b1\u03b4\u03b5\u03bb\u03bf\u03cd\u03c0\u03b7","NAME_HE":"\u05d2\u05d5\u05d5\u05d0\u05d3\u05dc\u05d5\u05e4","NAME_HI":"\u0917\u0941\u0906\u0926\u0947\u0932\u0942\u092a","NAME_HU":"Guadeloupe","NAME_ID":"Guadeloupe","NAME_IT":"Guadalupa","NAME_JA":"\u30b0\u30a2\u30c9\u30eb\u30fc\u30d7","NAME_KO":"\uacfc\ub4e4\ub8e8\ud504","NAME_NL":"Guadeloupe","NAME_PL":"Gwadelupa","NAME_PT":"Guadalupe","NAME_RU":"\u0413\u0432\u0430\u0434\u0435\u043b\u0443\u043f\u0430","NAME_SV":"Guadeloupe","NAME_TR":"Guadeloupe","NAME_UK":"\u0413\u0432\u0430\u0434\u0435\u043b\u0443\u043f\u0430","NAME_UR":"\u06af\u0648\u0627\u0688\u06cc\u0644\u0648\u067e","NAME_VI":"Guadeloupe","NAME_ZH":"\u74dc\u5fb7\u7f57\u666e","NAME_ZHT":"\u74dc\u5fb7\u7f85\u666e","FCLASS_ISO":"Admin-0 dependency","TLC_DIFF":"1","FCLASS_TLC":"Admin-1 states provinces","FCLASS_US":null,"FCLASS_FR":null,"FCLASS_RU":null,"FCLASS_ES":null,"FCLASS_CN":null,"FCLASS_TW":null,"FCLASS_IN":null,"FCLASS_NP":null,"FCLASS_PK":null,"FCLASS_DE":null,"FCLASS_GB":null,"FCLASS_BR":null,"FCLASS_IL":null,"FCLASS_PS":null,"FCLASS_SA":null,"FCLASS_EG":null,"FCLASS_MA":null,"FCLASS_PT":null,"FCLASS_AR":null,"FCLASS_JP":null,"FCLASS_KO":null,"FCLASS_VN":null,"FCLASS_TR":null,"FCLASS_ID":null,"FCLASS_PL":null,"FCLASS_GR":null,"FCLASS_IT":null,"FCLASS_NL":null,"FCLASS_SE":null,"FCLASS_BD":null,"FCLASS_UA":null},"bbox":[-61.794092,15.886035,-61.172607,16.506641],"geometry":{"type":"MultiPolygon","coordinates":[[[[-61.327148,16.23042],[-61.444824,16.219287],[-61.522168,16.228027],[-61.53999,16.299609],[-61.500586,16.360205],[-61.528906,16.433789],[-61.510645,16.477686],[-61.471191,16.506641],[-61.406445,16.468311],[-61.396143,16.413428],[-61.355469,16.363184],[-61.172607,16.256104],[-61.327148,16.23042]]],[[[-61.589551,16.006934],[-61.670459,15.962061],[-61.710254,15.975928],[-61.759424,16.062061],[-61.794092,16.300977],[-61.767139,16.340479],[-61.748047,16.355273],[-61.641504,16.325977],[-61.597021,16.292187],[-61.552344,16.270898],[-61.575049,16.227148],[-61.563867,16.047754],[-61.589551,16.006934]]],[[[-61.230469,15.889941],[-61.28623,15.886035],[-61.310742,15.894678],[-61.318408,15.954883],[-61.275293,15.99624],[-61.25,16.006299],[-61.212354,15.959912],[-61.203418,15.92124],[-61.230469,15.889941]]]]}},{"type":"Feature","properties":{"featurecla":"Admin-0 map unit","scalerank":1,"LABELRANK":4,"SOVEREIGNT":"France","SOV_A3":"FR1","ADM0_DIF":1,"LEVEL":3,"TYPE":"Geo unit","TLC":"1","ADMIN":"France","ADM0_A3":"FRA","GEOU_DIF":1,"GEOUNIT":"French Guiana","GU_A3":"GUF","SU_DIF":0,"SUBUNIT":"French Guiana","SU_A3":"GUF","BRK_DIFF":0,"NAME":"French Guiana","NAME_LONG":"French Guiana","BRK_A3":"GUF","BRK_NAME":"French Guiana","BRK_GROUP":null,"ABBREV":"Fr. G.","POSTAL":"GF","FORMAL_EN":"Department of Guiana","FORMAL_FR":null,"NAME_CIAWF":null,"NOTE_ADM0":"Fr.","NOTE_BRK":null,"NAME_SORT":"French Guiana","NAME_ALT":null,"MAPCOLOR7":7,"MAPCOLOR8":5,"MAPCOLOR9":9,"MAPCOLOR13":11,"POP_EST":294071,"POP_RANK":10,"POP_YEAR":2021,"GDP_MD":1874,"GDP_YEAR":2016,"ECONOMY":"1. Developed region: G7","INCOME_GRP":"3. Upper middle income","FIPS_10":"FG","ISO_A2":"FR-973","ISO_A2_EH":"GF","ISO_A3":"GUF","ISO_A3_EH":"GUF","ISO_N3":"254","ISO_N3_EH":"254","UN_A3":"254","WB_A2":"-99","WB_A3":"-99","WOE_ID":23424811,"WOE_ID_EH":23424811,"WOE_NOTE":"Exact WOE match as country","ADM0_ISO":"GUF","ADM0_DIFF":null,"ADM0_TLC":"GUF","ADM0_A3_US":"FRA","ADM0_A3_FR":"FRA","ADM0_A3_RU":"FRA","ADM0_A3_ES":"FRA","ADM0_A3_CN":"FRA","ADM0_A3_TW":"FRA","ADM0_A3_IN":"FRA","ADM0_A3_NP":"FRA","ADM0_A3_PK":"FRA","ADM0_A3_DE":"FRA","ADM0_A3_GB":"FRA","ADM0_A3_BR":"FRA","ADM0_A3_IL":"FRA","ADM0_A3_PS":"FRA","ADM0_A3_SA":"FRA","ADM0_A3_EG":"FRA","ADM0_A3_MA":"FRA","ADM0_A3_PT":"FRA","ADM0_A3_AR":"FRA","ADM0_A3_JP":"FRA","ADM0_A3_KO":"FRA","ADM0_A3_VN":"FRA","ADM0_A3_TR":"FRA","ADM0_A3_ID":"FRA","ADM0_A3_PL":"FRA","ADM0_A3_GR":"FRA","ADM0_A3_IT":"FRA","ADM0_A3_NL":"FRA","ADM0_A3_SE":"FRA","ADM0_A3_BD":"FRA","ADM0_A3_UA":"FRA","ADM0_A3_UN":-99,"ADM0_A3_WB":-99,"CONTINENT":"South America","REGION_UN":"Americas","SUBREGION":"South America","REGION_WB":"Latin America & Caribbean","NAME_LEN":13,"LONG_LEN":13,"ABBREV_LEN":6,"TINY":-99,"HOMEPART":-99,"MIN_ZOOM":0,"MIN_LABEL":5,"MAX_LABEL":10,"LABEL_X":-53.068349,"LABEL_Y":3.999223,"NE_ID":1159320655,"WIKIDATAID":"Q3769","NAME_AR":"\u063a\u0648\u064a\u0627\u0646\u0627 \u0627\u0644\u0641\u0631\u0646\u0633\u064a\u0629","NAME_BN":"\u09ab\u09b0\u09be\u09b8\u09bf \u0997\u09be\u09af\u09bc\u09be\u09a8\u09be","NAME_DE":"Franz\u00f6sisch-Guayana","NAME_EN":"French Guiana","NAME_ES":"Guayana Francesa","NAME_FA":"\u06af\u0648\u06cc\u0627\u0646 \u0641\u0631\u0627\u0646\u0633\u0647","NAME_FR":"Guyane","NAME_EL":"\u0393\u03b1\u03bb\u03bb\u03b9\u03ba\u03ae \u0393\u03bf\u03c5\u03b9\u03ac\u03bd\u03b1","NAME_HE":"\u05d2\u05d9\u05d0\u05e0\u05d4 \u05d4\u05e6\u05e8\u05e4\u05ea\u05d9\u05ea","NAME_HI":"\u092b\u093c\u094d\u0930\u093e\u0928\u094d\u0938\u0940\u0938\u0940 \u0917\u0941\u092f\u093e\u0928\u093e","NAME_HU":"Francia Guyana","NAME_ID":"Guyana Perancis","NAME_IT":"Guyana francese","NAME_JA":"\u30d5\u30e9\u30f3\u30b9\u9818\u30ae\u30a2\u30ca","NAME_KO":"\ud504\ub791\uc2a4\ub839 \uae30\uc544\ub098","NAME_NL":"Frans-Guyana","NAME_PL":"Gujana Francuska","NAME_PT":"Guiana Francesa","NAME_RU":"\u0424\u0440\u0430\u043d\u0446\u0443\u0437\u0441\u043a\u0430\u044f \u0413\u0432\u0438\u0430\u043d\u0430","NAME_SV":"Franska Guyana","NAME_TR":"Frans\u0131z Guyanas\u0131","NAME_UK":"\u0424\u0440\u0430\u043d\u0446\u0443\u0437\u044c\u043a\u0430 \u0413\u0432\u0456\u0430\u043d\u0430","NAME_UR":"\u0641\u0631\u0627\u0646\u0633\u06cc\u0633\u06cc \u06af\u06cc\u0627\u0646\u0627","NAME_VI":"Guyane thu\u1ed9c Ph\u00e1p","NAME_ZH":"\u6cd5\u5c5e\u572d\u4e9a\u90a3","NAME_ZHT":"\u6cd5\u5c6c\u572d\u4e9e\u90a3","FCLASS_ISO":"Admin-0 dependency","TLC_DIFF":"1","FCLASS_TLC":"Admin-1 states provinces","FCLASS_US":null,"FCLASS_FR":null,"FCLASS_RU":null,"FCLASS_ES":null,"FCLASS_CN":null,"FCLASS_TW":null,"FCLASS_IN":null,"FCLASS_NP":null,"FCLASS_PK":null,"FCLASS_DE":null,"FCLASS_GB":null,"FCLASS_BR":null,"FCLASS_IL":null,"FCLASS_PS":null,"FCLASS_SA":null,"FCLASS_EG":null,"FCLASS_MA":null,"FCLASS_PT":null,"FCLASS_AR":null,"FCLASS_JP":null,"FCLASS_KO":null,"FCLASS_VN":null,"FCLASS_TR":null,"FCLASS_ID":null,"FCLASS_PL":null,"FCLASS_GR":null,"FCLASS_IT":null,"FCLASS_NL":null,"FCLASS_SE":null,"FCLASS_BD":null,"FCLASS_UA":null},"bbox":[-54.61626,2.121045,-51.652539,5.782227],"geometry":{"type":"Polygon","coordinates":[[[-54.61626,2.326758],[-54.604736,2.335791],[-54.568408,2.342578],[-54.535937,2.343311],[-54.485547,2.416113],[-54.402002,2.461523],[-54.256738,2.713721],[-54.195508,2.817871],[-54.188086,2.874854],[-54.170703,2.993604],[-54.203125,3.138184],[-54.188037,3.17876],[-54.063184,3.35332],[-54.00957,3.448535],[-54.005957,3.530518],[-53.990479,3.589551],[-54.005908,3.62041],[-54.034229,3.629395],[-54.081982,3.705957],[-54.112793,3.769434],[-54.197461,3.834424],[-54.255518,3.901074],[-54.350732,4.054102],[-54.342139,4.140039],[-54.369141,4.170947],[-54.398389,4.20249],[-54.39624,4.241406],[-54.416016,4.337646],[-54.440674,4.428027],[-54.449609,4.48501],[-54.426074,4.583008],[-54.440234,4.691992],[-54.471143,4.749316],[-54.479687,4.836523],[-54.47334,4.914697],[-54.446875,4.958789],[-54.452197,5.013477],[-54.331641,5.187402],[-54.240186,5.288232],[-54.155957,5.358984],[-54.085303,5.411816],[-53.9896,5.676025],[-53.919922,5.768994],[-53.847168,5.782227],[-53.454443,5.563477],[-53.270361,5.543262],[-52.899316,5.425049],[-52.76499,5.273486],[-52.453955,5.021338],[-52.290527,4.942187],[-52.288916,4.876123],[-52.324609,4.770898],[-52.219971,4.862793],[-52.058105,4.717383],[-52.012305,4.645996],[-51.961914,4.514404],[-51.979346,4.429883],[-52.001709,4.38623],[-52.00293,4.352295],[-51.954785,4.399072],[-51.927686,4.436133],[-51.91958,4.524316],[-51.880273,4.63374],[-51.827539,4.635693],[-51.785645,4.570508],[-51.698633,4.286816],[-51.66582,4.228809],[-51.653271,4.13877],[-51.658105,4.098486],[-51.652539,4.061279],[-51.683447,4.039697],[-51.76709,3.992676],[-51.805273,3.929932],[-51.82749,3.86958],[-51.879492,3.828564],[-51.928906,3.776953],[-51.944336,3.735107],[-51.990625,3.702002],[-51.999512,3.646875],[-52.116113,3.452295],[-52.162598,3.364697],[-52.229443,3.27168],[-52.27124,3.237109],[-52.327881,3.181738],[-52.356641,3.117725],[-52.356641,3.051562],[-52.396387,2.972217],[-52.418408,2.903857],[-52.455859,2.86416],[-52.554688,2.647656],[-52.559473,2.573145],[-52.583008,2.528906],[-52.653174,2.425732],[-52.700635,2.363672],[-52.783398,2.317187],[-52.87041,2.26665],[-52.903467,2.211523],[-52.964844,2.183545],[-53.009717,2.181738],[-53.082275,2.201709],[-53.180078,2.211328],[-53.229785,2.204883],[-53.252197,2.232275],[-53.285498,2.295215],[-53.334424,2.339746],[-53.366016,2.324219],[-53.431836,2.279443],[-53.508984,2.253125],[-53.563965,2.261914],[-53.683691,2.29292],[-53.734717,2.308545],[-53.750146,2.33501],[-53.767773,2.354834],[-53.794238,2.345996],[-53.829541,2.312939],[-53.876611,2.278271],[-53.946436,2.232568],[-54.089746,2.150488],[-54.130078,2.121045],[-54.167383,2.137061],[-54.227979,2.15332],[-54.293066,2.154248],[-54.433105,2.20752],[-54.515088,2.245459],[-54.550488,2.293066],[-54.591943,2.31377],[-54.61626,2.326758]]]}},{"type":"Feature","properties":{"featurecla":"Admin-0 map unit","scalerank":0,"LABELRANK":5,"SOVEREIGNT":"United Kingdom","SOV_A3":"GB1","ADM0_DIF":1,"LEVEL":2,"TYPE":"Disputed","TLC":"1","ADMIN":"Gibraltar","ADM0_A3":"GIB","GEOU_DIF":0,"GEOUNIT":"Gibraltar","GU_A3":"GIB","SU_DIF":0,"SUBUNIT":"Gibraltar","SU_A3":"GIB","BRK_DIFF":1,"NAME":"Gibraltar","NAME_LONG":"Gibraltar","BRK_A3":"B55","BRK_NAME":"Gibraltar","BRK_GROUP":null,"ABBREV":"Gib.","POSTAL":"GI","FORMAL_EN":null,"FORMAL_FR":null,"NAME_CIAWF":"Gibraltar","NOTE_ADM0":"U.K.","NOTE_BRK":"Admin. By U.K.; Claimed by Spain","NAME_SORT":"Gibraltar","NAME_ALT":null,"MAPCOLOR7":6,"MAPCOLOR8":6,"MAPCOLOR9":6,"MAPCOLOR13":3,"POP_EST":33701,"POP_RANK":7,"POP_YEAR":2019,"GDP_MD":2044,"GDP_YEAR":2014,"ECONOMY":"2. Developed region: nonG7","INCOME_GRP":"1. High income: OECD","FIPS_10":"GI","ISO_A2":"GI","ISO_A2_EH":"GI","ISO_A3":"GIB","ISO_A3_EH":"GIB","ISO_N3":"292","ISO_N3_EH":"292","UN_A3":"292","WB_A2":"-99","WB_A3":"-99","WOE_ID":23424825,"WOE_ID_EH":23424825,"WOE_NOTE":"Exact WOE match as country","ADM0_ISO":"B55","ADM0_DIFF":null,"ADM0_TLC":"B55","ADM0_A3_US":"GIB","ADM0_A3_FR":"GIB","ADM0_A3_RU":"GIB","ADM0_A3_ES":"GIB","ADM0_A3_CN":"GIB","ADM0_A3_TW":"GIB","ADM0_A3_IN":"GIB","ADM0_A3_NP":"GIB","ADM0_A3_PK":"GIB","ADM0_A3_DE":"GIB","ADM0_A3_GB":"GIB","ADM0_A3_BR":"GIB","ADM0_A3_IL":"GIB","ADM0_A3_PS":"GIB","ADM0_A3_SA":"GIB","ADM0_A3_EG":"GIB","ADM0_A3_MA":"GIB","ADM0_A3_PT":"GIB","ADM0_A3_AR":"GIB","ADM0_A3_JP":"GIB","ADM0_A3_KO":"GIB","ADM0_A3_VN":"GIB","ADM0_A3_TR":"GIB","ADM0_A3_ID":"GIB","ADM0_A3_PL":"GIB","ADM0_A3_GR":"GIB","ADM0_A3_IT":"GIB","ADM0_A3_NL":"GIB","ADM0_A3_SE":"GIB","ADM0_A3_BD":"GIB","ADM0_A3_UA":"GIB","ADM0_A3_UN":-99,"ADM0_A3_WB":-99,"CONTINENT":"Europe","REGION_UN":"Europe","SUBREGION":"Southern Europe","REGION_WB":"Europe & Central Asia","NAME_LEN":9,"LONG_LEN":9,"ABBREV_LEN":4,"TINY":5,"HOMEPART":-99,"MIN_ZOOM":0,"MIN_LABEL":5,"MAX_LABEL":9.5,"LABEL_X":-5.3467,"LABEL_Y":36.129426,"NE_ID":1159320719,"WIKIDATAID":"Q1410","NAME_AR":"\u062c\u0628\u0644 \u0637\u0627\u0631\u0642","NAME_BN":"\u099c\u09bf\u09ac\u09cd\u09b0\u09be\u09b2\u09cd\u099f\u09be\u09b0","NAME_DE":"Gibraltar","NAME_EN":"Gibraltar","NAME_ES":"Gibraltar","NAME_FA":"\u062c\u0628\u0644 \u0637\u0627\u0631\u0642","NAME_FR":"Gibraltar","NAME_EL":"\u0393\u03b9\u03b2\u03c1\u03b1\u03bb\u03c4\u03ac\u03c1","NAME_HE":"\u05d2\u05d9\u05d1\u05e8\u05dc\u05d8\u05e8","NAME_HI":"\u091c\u093f\u092c\u094d\u0930\u093e\u0932\u094d\u091f\u0930","NAME_HU":"Gibralt\u00e1r","NAME_ID":"Gibraltar","NAME_IT":"Gibilterra","NAME_JA":"\u30b8\u30d6\u30e9\u30eb\u30bf\u30eb","NAME_KO":"\uc9c0\ube0c\ub864\ud130","NAME_NL":"Gibraltar","NAME_PL":"Gibraltar","NAME_PT":"Gibraltar","NAME_RU":"\u0413\u0438\u0431\u0440\u0430\u043b\u0442\u0430\u0440","NAME_SV":"Gibraltar","NAME_TR":"Cebelitar\u0131k","NAME_UK":"\u0413\u0456\u0431\u0440\u0430\u043b\u0442\u0430\u0440","NAME_UR":"\u062c\u0628\u0644 \u0627\u0644\u0637\u0627\u0631\u0642","NAME_VI":"Gibraltar","NAME_ZH":"\u76f4\u5e03\u7f57\u9640","NAME_ZHT":"\u76f4\u5e03\u7f85\u9640","FCLASS_ISO":"Admin-0 dependency","TLC_DIFF":null,"FCLASS_TLC":"Admin-0 dependency","FCLASS_US":null,"FCLASS_FR":null,"FCLASS_RU":null,"FCLASS_ES":"Unrecognized","FCLASS_CN":null,"FCLASS_TW":null,"FCLASS_IN":null,"FCLASS_NP":null,"FCLASS_PK":null,"FCLASS_DE":null,"FCLASS_GB":null,"FCLASS_BR":null,"FCLASS_IL":null,"FCLASS_PS":null,"FCLASS_SA":null,"FCLASS_EG":null,"FCLASS_MA":null,"FCLASS_PT":null,"FCLASS_AR":null,"FCLASS_JP":null,"FCLASS_KO":null,"FCLASS_VN":null,"FCLASS_TR":null,"FCLASS_ID":null,"FCLASS_PL":null,"FCLASS_GR":null,"FCLASS_IT":null,"FCLASS_NL":null,"FCLASS_SE":null,"FCLASS_BD":null,"FCLASS_UA":null},"bbox":[-5.358387,36.1105,-5.338773,36.14112],"geometry":{"type":"Polygon","coordinates":[[[-5.358387,36.141109],[-5.338773,36.14112],[-5.339915,36.129828],[-5.33906,36.123847],[-5.34203,36.1105],[-5.35025,36.119289],[-5.358387,36.141109]]]}}]}
